EUTELSAT 21B            
1 38992U 12062B   25365.82587084  .00000145  00000+0  00000+0 0  9993
2 38992   0.0648   4.7783 0003224 283.4468 131.1848  1.00274129 48145
EUTELSAT 70B            
1 39020U 12069A   25365.89767005 -.00000029  00000+0  00000+0 0  9995
2 39020   0.0605   3.4611 0003938 257.8161 232.9326  1.00271375 47830
EUTELSAT 117 WEST A     
1 39122U 13012A   25365.62313385  .00000002  00000+0  00000+0 0  9996
2 39122   0.0111  14.0840 0003125 270.9162 282.8105  1.00271178 46752
EUTELSAT 7B             
1 39163U 13022A   25365.82301083  .00000062  00000+0  00000+0 0  9992
2 39163   0.0667 347.3908 0005149 335.4595  80.9202  1.00269136 46267
EXPRESS-AT1             
1 39612U 14010A   25365.17405959  .00000096  00000+0  00000+0 0  9991
2 39612   0.0155 332.8910 0000364 240.5228   5.0927  1.00268913 43130
EXPRESS-AT2             
1 39613U 14010B   25365.92059705 -.00000267  00000+0  00000+0 0  9990
2 39613   0.0137 309.6199 0001724 321.9286 300.3011  1.00271408 42824
EUTELSAT 3B             
1 39773U 14030A   25365.82223082  .00000034  00000+0  00000+0 0  9990
2 39773   0.0604   6.4115 0004325 234.8469 158.3115  1.00271127 42380
EUTELSAT 115 WEST B     
1 40425U 15010B   25365.72741690 -.00000010  00000+0  00000+0 0  9999
2 40425   0.0072 160.3147 0000417 286.4635 160.5874  1.00272973 39716
